SKYSAT-C12              
1 43797U 18099AR  26068.62910795  .00017526  00000+0  36545-3 0  9994
2 43797  96.9382  96.0430 0005583 138.2727 221.8950 15.45599123406463
BANDWAGON-2 OBJECT Y    
1 62399U 24247Y   26068.43005317  .00034304  00000+0  79020-3 0  9997
2 62399  44.9978  95.1721 0008451   2.0350 358.0572 15.42036940 67978
