[{"OBJECT_NAME":"SKYSAT-C12","OBJECT_ID":"2018-099AR","EPOCH":"2026-03-09T15:05:54.926880","MEAN_MOTION":15.45599123,"ECCENTRICITY":0.0005583,"INCLINATION":96.9382,"RA_OF_ASC_NODE":96.043,"ARG_OF_PERICENTER":138.2727,"MEAN_ANOMALY":221.895,"EPHEMERIS_TYPE":0,"CLASSIFICATION_TYPE":"U","NORAD_CAT_ID":43797,"ELEMENT_SET_NO":999,"REV_AT_EPOCH":40646,"BSTAR":0.00036545,"MEAN_MOTION_DOT":0.00017526,"MEAN_MOTION_DDOT":0},{"OBJECT_NAME":"BANDWAGON-2 OBJECT Y","OBJECT_ID":"2024-247Y","EPOCH":"2026-03-09T10:19:16.593888","MEAN_MOTION":15.4203694,"ECCENTRICITY":0.00084513,"INCLINATION":44.9978,"RA_OF_ASC_NODE":95.1721,"ARG_OF_PERICENTER":2.035,"MEAN_ANOMALY":358.0572,"EPHEMERIS_TYPE":0,"CLASSIFICATION_TYPE":"U","NORAD_CAT_ID":62399,"ELEMENT_SET_NO":999,"REV_AT_EPOCH":6797,"BSTAR":0.00079019986,"MEAN_MOTION_DOT":0.00034304,"MEAN_MOTION_DDOT":0}]
